[{"OBJECT_NAME":"FENGYUN 1C DEB","OBJECT_ID":"1999-025FR","EPOCH":"2026-03-03T03:46:56.157024","MEAN_MOTION":14.4331013,"ECCENTRICITY":0.0055896,"INCLINATION":98.9826,"RA_OF_ASC_NODE":24.5403,"ARG_OF_PERICENTER":229.4249,"MEAN_ANOMALY":198.0244,"EPHEMERIS_TYPE":0,"CLASSIFICATION_TYPE":"U","NORAD_CAT_ID":29871,"ELEMENT_SET_NO":999,"REV_AT_EPOCH":99861,"BSTAR":0.00097086,"MEAN_MOTION_DOT":3.285e-5,"MEAN_MOTION_DDOT":0},{"OBJECT_NAME":"FENGYUN 1C DEB","OBJECT_ID":"1999-025FS","EPOCH":"2026-03-02T23:28:40.444896","MEAN_MOTION":14.39336811,"ECCENTRICITY":0.0236182,"INCLINATION":98.3419,"RA_OF_ASC_NODE":80.8681,"ARG_OF_PERICENTER":72.2756,"MEAN_ANOMALY":290.406,"EPHEMERIS_TYPE":0,"CLASSIFICATION_TYPE":"U","NORAD_CAT_ID":29872,"ELEMENT_SET_NO":999,"REV_AT_EPOCH":99746,"BSTAR":0.00078301,"MEAN_MOTION_DOT":3.328e-5,"MEAN_MOTION_DDOT":0},{"OBJECT_NAME":"FENGYUN 1C DEB","OBJECT_ID":"1999-025FT","EPOCH":"2026-03-03T02:54:31.425984","MEAN_MOTION":13.98244941,"ECCENTRICITY":0.0092454,"INCLINATION":99.4373,"RA_OF_ASC_NODE":289.5025,"ARG_OF_PERICENTER":340.463,"MEAN_ANOMALY":172.9335,"EPHEMERIS_TYPE":0,"CLASSIFICATION_TYPE":"U","NORAD_CAT_ID":29873,"ELEMENT_SET_NO":999,"REV_AT_EPOCH":97438,"BSTAR":0.00031175,"MEAN_MOTION_DOT":4.13e-6,"MEAN_MOTION_DDOT":0},{"OBJECT_NAME":"FENGYUN 1C DEB","OBJECT_ID":"1999-025FU","EPOCH":"2026-03-03T04:59:49.003584","MEAN_MOTION":14.30144827,"ECCENTRICITY":0.0100637,"INCLINATION":98.3783,"RA_OF_ASC_NODE":321.0602,"ARG_OF_PERICENTER":111.1522,"MEAN_ANOMALY":39.4516,"EPHEMERIS_TYPE":0,"CLASSIFICATION_TYPE":"U","NORAD_CAT_ID":29874,"ELEMENT_SET_NO":999,"REV_AT_EPOCH":97997,"BSTAR":0.0023579,"MEAN_MOTION_DOT":6.409e-5,"MEAN_MOTION_DDOT":0},{"OBJECT_NAME":"FENGYUN 1C DEB","OBJECT_ID":"1999-025FV","EPOCH":"2026-03-02T17:21:43.069824","MEAN_MOTION":14.24897453,"ECCENTRICITY":0.0082099,"INCLINATION":98.3907,"RA_OF_ASC_NODE":114.7138,"ARG_OF_PERICENTER":187.6906,"MEAN_ANOMALY":297.4032,"EPHEMERIS_TYPE":0,"CLASSIFICATION_TYPE":"U","NORAD_CAT_ID":29875,"ELEMENT_SET_NO":999,"REV_AT_EPOCH":99461,"BSTAR":5.9886331e-5,"MEAN_MOTION_DOT":1.04e-6,"MEAN_MOTION_DDOT":0},{"OBJECT_NAME":"FENGYUN 1C DEB","OBJECT_ID":"1999-025FW","EPOCH":"2026-03-03T02:56:01.807296","MEAN_MOTION":14.20358321,"ECCENTRICITY":0.0062172,"INCLINATION":98.3193,"RA_OF_ASC_NODE":113.0208,"ARG_OF_PERICENTER":141.3422,"MEAN_ANOMALY":245.6293,"EPHEMERIS_TYPE":0,"CLASSIFICATION_TYPE":"U","NORAD_CAT_ID":29876,"ELEMENT_SET_NO":999,"REV_AT_EPOCH":99058,"BSTAR":0.0001517,"MEAN_MOTION_DOT":2.91e-6,"MEAN_MOTION_DDOT":0},{"OBJECT_NAME":"FENGYUN 1C DEB","OBJECT_ID":"1999-025FX","EPOCH":"2026-03-02T23:15:15.591744","MEAN_MOTION":14.2500004,"ECCENTRICITY":0.0046053,"INCLINATION":98.539,"RA_OF_ASC_NODE":70.0867,"ARG_OF_PERICENTER":346.6361,"MEAN_ANOMALY":75.9195,"EPHEMERIS_TYPE":0,"CLASSIFICATION_TYPE":"U","NORAD_CAT_ID":29877,"ELEMENT_SET_NO":999,"REV_AT_EPOCH":99116,"BSTAR":0.00058177,"MEAN_MOTION_DOT":1.334e-5,"MEAN_MOTION_DDOT":0},{"OBJECT_NAME":"FENGYUN 1C DEB","OBJECT_ID":"1999-025FY","EPOCH":"2026-03-02T23:32:45.694752","MEAN_MOTION":15.53802225,"ECCENTRICITY":0.0027005,"INCLINATION":96.9395,"RA_OF_ASC_NODE":233.7812,"ARG_OF_PERICENTER":279.6085,"MEAN_ANOMALY":80.2119,"EPHEMERIS_TYPE":0,"CLASSIFICATION_TYPE":"U","NORAD_CAT_ID":29878,"ELEMENT_SET_NO":999,"REV_AT_EPOCH":99871,"BSTAR":0.013073,"MEAN_MOTION_DOT":0.00935907,"MEAN_MOTION_DDOT":0},{"OBJECT_NAME":"FENGYUN 1C DEB","OBJECT_ID":"1999-025GA","EPOCH":"2026-03-03T04:49:52.288032","MEAN_MOTION":13.94310658,"ECCENTRICITY":0.0229118,"INCLINATION":98.1949,"RA_OF_ASC_NODE":336.7783,"ARG_OF_PERICENTER":236.4481,"MEAN_ANOMALY":288.0264,"EPHEMERIS_TYPE":0,"CLASSIFICATION_TYPE":"U","NORAD_CAT_ID":29880,"ELEMENT_SET_NO":999,"REV_AT_EPOCH":96683,"BSTAR":0.00091065,"MEAN_MOTION_DOT":1.467e-5,"MEAN_MOTION_DDOT":0},{"OBJECT_NAME":"FENGYUN 1C DEB","OBJECT_ID":"1999-025GB","EPOCH":"2026-03-02T20:04:37.776576","MEAN_MOTION":13.5996063,"ECCENTRICITY":0.0289501,"INCLINATION":98.7274,"RA_OF_ASC_NODE":30.4223,"ARG_OF_PERICENTER":223.467,"MEAN_ANOMALY":210.2286,"EPHEMERIS_TYPE":0,"CLASSIFICATION_TYPE":"U","NORAD_CAT_ID":29881,"ELEMENT_SET_NO":999,"REV_AT_EPOCH":94323,"BSTAR":0.00083369,"MEAN_MOTION_DOT":7.81e-6,"MEAN_MOTION_DDOT":0},{"OBJECT_NAME":"FENGYUN 1C DEB","OBJECT_ID":"1999-025GE","EPOCH":"2026-03-03T03:24:58.056768","MEAN_MOTION":14.40675271,"ECCENTRICITY":0.0042834,"INCLINATION":99.594,"RA_OF_ASC_NODE":110.2822,"ARG_OF_PERICENTER":262.7301,"MEAN_ANOMALY":115.8036,"EPHEMERIS_TYPE":0,"CLASSIFICATION_TYPE":"U","NORAD_CAT_ID":29884,"ELEMENT_SET_NO":999,"REV_AT_EPOCH":99707,"BSTAR":0.00064581,"MEAN_MOTION_DOT":2.031e-5,"MEAN_MOTION_DDOT":0},{"OBJECT_NAME":"FENGYUN 1C DEB","OBJECT_ID":"1999-025GF","EPOCH":"2026-03-02T19:05:33.583776","MEAN_MOTION":14.13646695,"ECCENTRICITY":0.01170754,"INCLINATION":98.3623,"RA_OF_ASC_NODE":356.6393,"ARG_OF_PERICENTER":294.5905,"MEAN_ANOMALY":120.1151,"EPHEMERIS_TYPE":0,"CLASSIFICATION_TYPE":"U","NORAD_CAT_ID":29885,"ELEMENT_SET_NO":999,"REV_AT_EPOCH":98588,"BSTAR":0.00020213918,"MEAN_MOTION_DOT":3.66e-6,"MEAN_MOTION_DDOT":0},{"OBJECT_NAME":"FENGYUN 1C DEB","OBJECT_ID":"1999-025GH","EPOCH":"2026-03-02T19:55:58.691424","MEAN_MOTION":14.34368305,"ECCENTRICITY":0.02862951,"INCLINATION":98.7085,"RA_OF_ASC_NODE":149.1794,"ARG_OF_PERICENTER":122.5321,"MEAN_ANOMALY":358.0733,"EPHEMERIS_TYPE":0,"CLASSIFICATION_TYPE":"U","NORAD_CAT_ID":29887,"ELEMENT_SET_NO":999,"REV_AT_EPOCH":99122,"BSTAR":0.0010307722,"MEAN_MOTION_DOT":4.556e-5,"MEAN_MOTION_DDOT":0},{"OBJECT_NAME":"FENGYUN 1C DEB","OBJECT_ID":"1999-025GJ","EPOCH":"2026-03-03T02:05:04.340256","MEAN_MOTION":14.2018497,"ECCENTRICITY":0.0273934,"INCLINATION":99.1919,"RA_OF_ASC_NODE":263.0213,"ARG_OF_PERICENTER":156.6516,"MEAN_ANOMALY":204.7381,"EPHEMERIS_TYPE":0,"CLASSIFICATION_TYPE":"U","NORAD_CAT_ID":29888,"ELEMENT_SET_NO":999,"REV_AT_EPOCH":98644,"BSTAR":0.00067929,"MEAN_MOTION_DOT":2.063e-5,"MEAN_MOTION_DDOT":0},{"OBJECT_NAME":"FENGYUN 1C DEB","OBJECT_ID":"1999-025GK","EPOCH":"2026-03-02T21:26:11.141664","MEAN_MOTION":14.13661618,"ECCENTRICITY":0.015409,"INCLINATION":99.4808,"RA_OF_ASC_NODE":189.0774,"ARG_OF_PERICENTER":175.3395,"MEAN_ANOMALY":308.3111,"EPHEMERIS_TYPE":0,"CLASSIFICATION_TYPE":"U","NORAD_CAT_ID":29889,"ELEMENT_SET_NO":999,"REV_AT_EPOCH":98451,"BSTAR":0.00061999,"MEAN_MOTION_DOT":1.262e-5,"MEAN_MOTION_DDOT":0},{"OBJECT_NAME":"FENGYUN 1C DEB","OBJECT_ID":"1999-025GL","EPOCH":"2026-03-02T21:53:41.106912","MEAN_MOTION":14.23557976,"ECCENTRICITY":0.0016474,"INCLINATION":99.4697,"RA_OF_ASC_NODE":194.4634,"ARG_OF_PERICENTER":203.4352,"MEAN_ANOMALY":156.6075,"EPHEMERIS_TYPE":0,"CLASSIFICATION_TYPE":"U","NORAD_CAT_ID":29890,"ELEMENT_SET_NO":999,"REV_AT_EPOCH":98591,"BSTAR":0.0017639,"MEAN_MOTION_DOT":3.972e-5,"MEAN_MOTION_DDOT":0},{"OBJECT_NAME":"FENGYUN 1C DEB","OBJECT_ID":"1999-025GM","EPOCH":"2026-03-02T23:26:15.844128","MEAN_MOTION":14.00097052,"ECCENTRICITY":0.0061169,"INCLINATION":98.7323,"RA_OF_ASC_NODE":65.459,"ARG_OF_PERICENTER":39.4955,"MEAN_ANOMALY":351.6462,"EPHEMERIS_TYPE":0,"CLASSIFICATION_TYPE":"U","NORAD_CAT_ID":29891,"ELEMENT_SET_NO":999,"REV_AT_EPOCH":97611,"BSTAR":0.00023883,"MEAN_MOTION_DOT":3.16e-6,"MEAN_MOTION_DDOT":0},{"OBJECT_NAME":"FENGYUN 1C DEB","OBJECT_ID":"1999-025GN","EPOCH":"2026-03-03T00:03:50.630976","MEAN_MOTION":14.3459599,"ECCENTRICITY":0.0183737,"INCLINATION":99.1794,"RA_OF_ASC_NODE":219.4315,"ARG_OF_PERICENTER":65.7372,"MEAN_ANOMALY":56.8015,"EPHEMERIS_TYPE":0,"CLASSIFICATION_TYPE":"U","NORAD_CAT_ID":29892,"ELEMENT_SET_NO":999,"REV_AT_EPOCH":97799,"BSTAR":0.0023994,"MEAN_MOTION_DOT":8.156e-5,"MEAN_MOTION_DDOT":0},{"OBJECT_NAME":"FENGYUN 1C DEB","OBJECT_ID":"1999-025GP","EPOCH":"2026-03-03T04:39:40.932864","MEAN_MOTION":13.79499834,"ECCENTRICITY":0.0171798,"INCLINATION":98.5458,"RA_OF_ASC_NODE":155.5251,"ARG_OF_PERICENTER":295.9427,"MEAN_ANOMALY":91.7586,"EPHEMERIS_TYPE":0,"CLASSIFICATION_TYPE":"U","NORAD_CAT_ID":29893,"ELEMENT_SET_NO":999,"REV_AT_EPOCH":96249,"BSTAR":0.00021089,"MEAN_MOTION_DOT":2.03e-6,"MEAN_MOTION_DDOT":0},{"OBJECT_NAME":"FENGYUN 1C DEB","OBJECT_ID":"1999-025GQ","EPOCH":"2026-03-03T02:20:45.979296","MEAN_MOTION":13.81091585,"ECCENTRICITY":0.0169484,"INCLINATION":99.4735,"RA_OF_ASC_NODE":121.7334,"ARG_OF_PERICENTER":192.4649,"MEAN_ANOMALY":198.7237,"EPHEMERIS_TYPE":0,"CLASSIFICATION_TYPE":"U","NORAD_CAT_ID":29894,"ELEMENT_SET_NO":999,"REV_AT_EPOCH":96186,"BSTAR":0.00058963,"MEAN_MOTION_DOT":6.5e-6,"MEAN_MOTION_DDOT":0},{"OBJECT_NAME":"FENGYUN 1C DEB","OBJECT_ID":"1999-025GR","EPOCH":"2026-03-03T03:23:44.253024","MEAN_MOTION":14.09791472,"ECCENTRICITY":0.0298609,"INCLINATION":99.8834,"RA_OF_ASC_NODE":183.3862,"ARG_OF_PERICENTER":124.783,"MEAN_ANOMALY":359.6969,"EPHEMERIS_TYPE":0,"CLASSIFICATION_TYPE":"U","NORAD_CAT_ID":29895,"ELEMENT_SET_NO":999,"REV_AT_EPOCH":96656,"BSTAR":0.0045337,"MEAN_MOTION_DOT":0.0001203,"MEAN_MOTION_DDOT":0},{"OBJECT_NAME":"FENGYUN 1C DEB","OBJECT_ID":"1999-025GS","EPOCH":"2026-03-02T04:12:12.719808","MEAN_MOTION":13.65475999,"ECCENTRICITY":0.02383905,"INCLINATION":99.4188,"RA_OF_ASC_NODE":315.6969,"ARG_OF_PERICENTER":257.7414,"MEAN_ANOMALY":259.073,"EPHEMERIS_TYPE":0,"CLASSIFICATION_TYPE":"U","NORAD_CAT_ID":29896,"ELEMENT_SET_NO":999,"REV_AT_EPOCH":95126,"BSTAR":0.00040099524,"MEAN_MOTION_DOT":3.52e-6,"MEAN_MOTION_DDOT":0},{"OBJECT_NAME":"FENGYUN 1C DEB","OBJECT_ID":"1999-025GT","EPOCH":"2026-03-01T19:58:53.254848","MEAN_MOTION":13.57539704,"ECCENTRICITY":0.02982062,"INCLINATION":98.6292,"RA_OF_ASC_NODE":280.5815,"ARG_OF_PERICENTER":293.2669,"MEAN_ANOMALY":123.7171,"EPHEMERIS_TYPE":0,"CLASSIFICATION_TYPE":"U","NORAD_CAT_ID":29897,"ELEMENT_SET_NO":999,"REV_AT_EPOCH":94013,"BSTAR":0.0019337124,"MEAN_MOTION_DOT":1.813e-5,"MEAN_MOTION_DDOT":0}]
